RAIKO
1 38852U 98067CN  13218.07382584  .24681979  12625-4  36599-3 0  3409
2 38852 051.6160 184.0336 0004489 261.9162 100.6538 16.48474690 47849
DO-64
1 32789U 08021G   13339.76673617  .00007416  00000-0  76461-3 0  8187
2 32789 097.7489 039.4061 0014394 089.6623 270.6747 14.90193669303662
CO-66
1 32791U 08021J   13338.46998976  .00001959  00000-0  23351-3 0  7741
2 32791 097.7303 031.6108 0016336 105.5572 004.6163 14.85312630303140
RS-30
1 32953U 08025A   13339.41818454  .00000010  00000-0  00000+0 0  4402
2 32953 082.5002 321.7059 0017709 216.9122 143.0738 12.43040285251187
METEOR-M
1 35865U 09049A   13339.57349876 -.00000011  00000-0  14507-4 0   475
2 35865 098.5802 027.5855 0001955 318.0077 042.0962 14.21899920218828
RS-38
1 35869U 09049E   13339.22470158  .00000068  00000-0  49997-4 0    44
2 35869 098.5742 027.1090 0004093 308.0321 052.0493 14.22161490218802
JUGNU
1 37839U 11058B   13339.15228302  .00000463  00000-0  10613-3 0  5158
2 37839 019.9631 350.8392 0019225 007.2023 049.4585 14.12214919111095
SRMSAT
1 37841U 11058D   13339.16028749  .00000429  00000-0  91769-4 0  5148
2 37841 019.9738 006.2334 0011895 314.8656 090.4694 14.10273699110935
RAX-2
1 37853U 11061D   13339.45221356  .00007861  00000-0  57342-3 0  6625
2 37853 101.7028 272.5555 0227765 255.7477 216.3852 14.85750089113856
AUBIESAT
1 37854U 11061E   13338.44467134  .00008516  00000-0  60591-3 0  6460
2 37854 101.7066 272.3331 0226934 256.7101 228.1145 14.86668755113733
HRBE
1 37855U 11061F   13339.63743175  .00007880  00000-0  56535-3 0  6562
2 37855 101.7065 273.7006 0228369 254.0492 232.4951 14.86227693113897
RS-39
1 38051U 11062C   13339.52568853  .00033740  00000-0  86368-3 0   361
2 38051 051.6337 100.3648 0009358 171.9229 284.9850 15.39048828104102
E-STAR
1 38079U 12006C   13339.48760120  .00064049  39522-5  10783-2 0  6530
2 38079 069.4685 125.8578 0534271 267.2560 147.6679 14.67211737 94678
GOLIAT
1 38085U 12006J   13339.50714264  .00059152  38320-5  10118-2 0  5993
2 38085 069.4690 129.6167 0547356 269.0570 084.7810 14.64158234 94572
HORYU-2
1 38340U 12025D   13339.09066206  .00001980  00000-0  32711-3 0  6886
2 38340 098.2370 288.4562 0013631 070.5972 289.6709 14.71473824 83247
RS-40
1 38736U 12041D   13338.80910084  .00000010  00000-0  00000+0 0  4426
2 38736 082.4812 048.7441 0020337 315.7338 044.2122 12.42874248 61449
PROITERES
1 38756U 12047B   13339.61701302  .00000839  00000-0  13421-3 0  3642
2 38756 098.2424 059.7114 0011368 282.1590 077.8359 14.74482905 66659
