Satellite: DO-64
Catalog number: 32789
Epoch time:      13339.76673617
Element set:     818
Inclination:      097.7489 deg
RA of node:       039.4061 deg
Eccentricity:    0.0014394
Arg of perigee:   089.6623 deg
Mean anomaly:     270.6747 deg
Mean motion:   14.90193669 rev/day
Decay rate:      7.416e-05 rev/day^2
Epoch rev:           30366
Checksum:              366

Satellite: CO-66
Catalog number: 32791
Epoch time:      13338.46998976
Element set:     774
Inclination:      097.7303 deg
RA of node:       031.6108 deg
Eccentricity:    0.0016336
Arg of perigee:   105.5572 deg
Mean anomaly:     004.6163 deg
Mean motion:   14.85312630 rev/day
Decay rate:      1.959e-05 rev/day^2
Epoch rev:           30314
Checksum:              317

Satellite: RS-30
Catalog number: 32953
Epoch time:      13339.41818454
Element set:     440
Inclination:      082.5002 deg
RA of node:       321.7059 deg
Eccentricity:    0.0017709
Arg of perigee:   216.9122 deg
Mean anomaly:     143.0738 deg
Mean motion:   12.43040285 rev/day
Decay rate:        1.0e-07 rev/day^2
Epoch rev:           25118
Checksum:              262

Satellite: METEOR-M
Catalog number: 35865
Epoch time:      13339.57349876
Element set:      47
Inclination:      098.5802 deg
RA of node:       027.5855 deg
Eccentricity:    0.0001955
Arg of perigee:   318.0077 deg
Mean anomaly:     042.0962 deg
Mean motion:   14.21899920 rev/day
Decay rate:       -1.1e-07 rev/day^2
Epoch rev:           21882
Checksum:              319

Satellite: RS-38
Catalog number: 35869
Epoch time:      13339.22470158
Element set:       4
Inclination:      098.5742 deg
RA of node:       027.1090 deg
Eccentricity:    0.0004093
Arg of perigee:   308.0321 deg
Mean anomaly:     052.0493 deg
Mean motion:   14.22161490 rev/day
Decay rate:        6.8e-07 rev/day^2
Epoch rev:           21880
Checksum:              278

Satellite: JUGNU
Catalog number: 37839
Epoch time:      13339.15228302
Element set:     515
Inclination:      019.9631 deg
RA of node:       350.8392 deg
Eccentricity:    0.0019225
Arg of perigee:   007.2023 deg
Mean anomaly:     049.4585 deg
Mean motion:   14.12214919 rev/day
Decay rate:       4.63e-06 rev/day^2
Epoch rev:           11109
Checksum:              278

Satellite: SRMSAT
Catalog number: 37841
Epoch time:      13339.16028749
Element set:     514
Inclination:      019.9738 deg
RA of node:       006.2334 deg
Eccentricity:    0.0011895
Arg of perigee:   314.8656 deg
Mean anomaly:     090.4694 deg
Mean motion:   14.10273699 rev/day
Decay rate:       4.29e-06 rev/day^2
Epoch rev:           11093
Checksum:              313

Satellite: RAX-2
Catalog number: 37853
Epoch time:      13339.45221356
Element set:     662
Inclination:      101.7028 deg
RA of node:       272.5555 deg
Eccentricity:    0.0227765
Arg of perigee:   255.7477 deg
Mean anomaly:     216.3852 deg
Mean motion:   14.85750089 rev/day
Decay rate:      7.861e-05 rev/day^2
Epoch rev:           11385
Checksum:              328

Satellite: AUBIESAT
Catalog number: 37854
Epoch time:      13338.44467134
Element set:     646
Inclination:      101.7066 deg
RA of node:       272.3331 deg
Eccentricity:    0.0226934
Arg of perigee:   256.7101 deg
Mean anomaly:     228.1145 deg
Mean motion:   14.86668755 rev/day
Decay rate:      8.516e-05 rev/day^2
Epoch rev:           11373
Checksum:              306

Satellite: HRBE
Catalog number: 37855
Epoch time:      13339.63743175
Element set:     656
Inclination:      101.7065 deg
RA of node:       273.7006 deg
Eccentricity:    0.0228369
Arg of perigee:   254.0492 deg
Mean anomaly:     232.4951 deg
Mean motion:   14.86227693 rev/day
Decay rate:      7.880e-05 rev/day^2
Epoch rev:           11389
Checksum:              328

Satellite: RS-39
Catalog number: 38051
Epoch time:      13339.52568853
Element set:      36
Inclination:      051.6337 deg
RA of node:       100.3648 deg
Eccentricity:    0.0009358
Arg of perigee:   171.9229 deg
Mean anomaly:     284.9850 deg
Mean motion:   15.39048828 rev/day
Decay rate:     3.3740e-04 rev/day^2
Epoch rev:           10410
Checksum:              317

Satellite: E-STAR
Catalog number: 38079
Epoch time:      13339.48760120
Element set:     653
Inclination:      069.4685 deg
RA of node:       125.8578 deg
Eccentricity:    0.0534271
Arg of perigee:   267.2560 deg
Mean anomaly:     147.6679 deg
Mean motion:   14.67211737 rev/day
Decay rate:     6.4049e-04 rev/day^2
Epoch rev:            9467
Checksum:              348

Satellite: GOLIAT
Catalog number: 38085
Epoch time:      13339.50714264
Element set:     599
Inclination:      069.4690 deg
RA of node:       129.6167 deg
Eccentricity:    0.0547356
Arg of perigee:   269.0570 deg
Mean anomaly:     084.7810 deg
Mean motion:   14.64158234 rev/day
Decay rate:     5.9152e-04 rev/day^2
Epoch rev:            9457
Checksum:              340

Satellite: HORYU-2
Catalog number: 38340
Epoch time:      13339.09066206
Element set:     688
Inclination:      098.2370 deg
RA of node:       288.4562 deg
Eccentricity:    0.0013631
Arg of perigee:   070.5972 deg
Mean anomaly:     289.6709 deg
Mean motion:   14.71473824 rev/day
Decay rate:      1.980e-05 rev/day^2
Epoch rev:            8324
Checksum:              324

Satellite: RS-40
Catalog number: 38736
Epoch time:      13338.80910084
Element set:     442
Inclination:      082.4812 deg
RA of node:       048.7441 deg
Eccentricity:    0.0020337
Arg of perigee:   315.7338 deg
Mean anomaly:     044.2122 deg
Mean motion:   12.42874248 rev/day
Decay rate:        1.0e-07 rev/day^2
Epoch rev:            6144
Checksum:              271

Satellite: PROITERES
Catalog number: 38756
Epoch time:      13339.61701302
Element set:     364
Inclination:      098.2424 deg
RA of node:       059.7114 deg
Eccentricity:    0.0011368
Arg of perigee:   282.1590 deg
Mean anomaly:     077.8359 deg
Mean motion:   14.74482905 rev/day
Decay rate:       8.39e-06 rev/day^2
Epoch rev:            6665
Checksum:              318

Satellite: RAIKO
Catalog number: 38852
Epoch time:      13218.07382584
Element set:     340
Inclination:      051.6160 deg
RA of node:       184.0336 deg
Eccentricity:    0.0004489
Arg of perigee:   261.9162 deg
Mean anomaly:     100.6538 deg
Mean motion:   16.48474690 rev/day
Decay rate:  2.4681979e-01 rev/day^2
Epoch rev:            4784
Checksum:              326

